SPACEBEE-108            
1 48895U 21059S   21351.62810527  .00003313  00000+0  19196-3 0  9992
2 48895  97.5354 118.0121 0009891  21.7408 338.4241 15.12857204 26426
SPACEBEE-105            
1 48896U 21059T   21352.05130197  .00002870  00000+0  16795-3 0  9998
2 48896  97.5333 118.3192 0009096  10.9599 349.1828 15.12613428 26487
SPACEBEE-109            
1 48897U 21059U   21352.08842025  .00003093  00000+0  17944-3 0  9997
2 48897  97.5352 118.4666 0009901  17.8776 342.2801 15.12857183 26498
CENTAURI-4 (TYVAK-0211) 
1 48898U 21059V   21352.08107843  .00003565  00000+0  20551-3 0  9992
2 48898  97.5342 118.4659 0010742  20.9868 339.1802 15.12981354 26496
SPACEBEE-110            
1 48899U 21059W   21351.87282300  .00003025  00000+0  17442-3 0  9997
2 48899  97.5359 118.3052 0009989  17.4045 342.7527 15.13099592 26466
TUBIN                   
1 48900U 21059X   21352.24106963  .00000815  00000+0  50418-4 0  9997
2 48900  97.5307 118.5128 0010785  17.1150  46.0101 15.12553691 26510
TROPICS PATHFINDER      
1 48901U 21059Y   21352.07898596  .00002450  00000+0  14279-3 0  9990
2 48901  97.5258 118.2766 0010534  17.4826 342.6766 15.12885034 26494
LINCS1                  
1 48902U 21059Z   21352.08092680  .00001636  00000+0  96921-4 0  9992
2 48902  97.5340 118.4396 0011311  18.2224 341.9410 15.12764837 26498
LINCS2                  
1 48903U 21059AA  21351.88043385  .00001584  00000+0  93908-4 0  9992
2 48903  97.5267 118.0825 0010656  14.7873 345.3667 15.12782570 26465
SPACEBEE-111            
1 48904U 21059AB  21351.85122090  .00003676  00000+0  20986-3 0  9990
2 48904  97.5363 118.3476 0011152  17.1402 343.0204 15.13316164 26460
NUSAT-19 (ROSALIND)     
1 48905U 21059AC  21352.22456943  .00001606  00000+0  83933-4 0  9993
2 48905  97.4860 118.6462 0010199 353.8700  90.9623 15.17291533 26572
UMBRA-2001              
1 48906U 21059AD  21352.08098098  .00005158  00000+0  34620-3 0  9995
2 48906  97.5254 118.1623 0010295 239.5938 120.4273 15.07210950 26488
MANDRAKE 2 ABLE         
1 48907U 21059AE  21351.86698682  .00001028  00000+0  62081-4 0  9991
2 48907  97.5318 118.2086 0011269  14.8398 345.3162 15.12872111 26462
MANDRAKE 2 BAKER        
1 48908U 21059AF  21351.86713237  .00001033  00000+0  62381-4 0  9995
2 48908  97.5317 118.2079 0010619  12.9617 347.1885 15.12870477 26460
PACE-1                  
1 48909U 21059AG  21351.99635500  .00001096  00000+0  66030-4 0  9990
2 48909  97.5242 118.1737 0011193  10.1600 349.9855 15.12835270 26489
GNOMES-2                
1 48910U 21059AH  21351.84391552  .00003399  00000+0  19452-3 0  9995
2 48910  97.5342 118.3098 0011638  13.2035 346.9499 15.13272300 26463
YAM-2                   
1 48911U 21059AJ  21351.85379199  .00001518  00000+0  89616-4 0  9991
2 48911  97.5346 118.2920 0011740  12.7296 347.4229 15.12997413 26463
ION SCV-003             
1 48912U 21059AK  21352.17272256  .00000770  00000+0  48787-4 0  9997
2 48912  97.5220 118.3988 0006456 344.2004 138.0128 15.11832364 26507
CAPELLA-5 (WHITNEY)     
1 48913U 21059AL  21351.82964313  .00009595  00000+0  51808-3 0  9992
2 48913  97.5273 118.3557 0010152   8.8757 351.2652 15.14894503 26477
ICEYE-X12               
1 48914U 21059AM  21351.50883054 -.00045416  00000+0 -25817-2 0  9994
2 48914  97.5325 118.0036 0011380  13.6977  49.2705 15.13016501 26417
YAM-3                   
1 48915U 21059AN  21351.84364214  .00001085  00000+0  65100-4 0  9997
2 48915  97.5306 118.2122 0011808   7.0447 353.0947 15.12997752 26463
ICEYE-X13               
1 48916U 21059AP  21352.23393237 -.00046670  00000+0 -27305-2 0  9993
2 48916  97.5329 118.7354 0010918  19.3448  74.0488 15.11993941 26521
ICEYE-X15               
1 48917U 21059AQ  21352.23098928  .00002125  00000+0  12216-3 0  9994
2 48917  97.5326 118.7550 0012122   6.3325 108.7925 15.13522126 26522
ICEYE-X11               
1 48918U 21059AR  21352.23246711  .00001901  00000+0  10994-3 0  9992
2 48918  97.5317 118.7396 0012547   6.2808 109.1339 15.13430657 26528
NUSAT-22 (SOFYA)        
1 48919U 21059AS  21352.07188083  .00004065  00000+0  12754-3 0  9992
2 48919  97.3412 119.0807 0013476 336.7550 110.0616 15.33532063 26706
NUSAT-21 (ELISA)        
1 48920U 21059AT  21352.11246528  .00004150  00000+0  13047-3 0  9999
2 48920  97.3303 118.9554 0013998 344.4576  16.0757 15.33447791 26712
NUSAT-20 (GRACE)        
1 48921U 21059AU  21352.17560277  .00004143  00000+0  12997-3 0  9991
2 48921  97.3418 119.1792 0014441   2.6658 119.7222 15.33514547 26717
D2/ATLACOM-1            
1 48922U 21059AV  21352.19998907 -.00003889  00000+0 -21226-3 0  9992
2 48922  97.5250 118.6349 0013240   0.9781 119.1971 15.13684348 26529
LEMUR-2-ANNABANANA      
1 48923U 21059AW  21352.05656494  .00004456  00000+0  24932-3 0  9996
2 48923  97.5271 118.4983 0011936   4.7247 355.4095 15.13909311 26504
FARADAY_PHOENIX         
1 48924U 21059AX  21352.19765140  .00000807  00000+0  48401-4 0  9995
2 48924  97.5336 118.8086 0018904   6.9818 113.5875 15.13662733 26520
LEMUR-2-JOHN-TREIRES    
1 48925U 21059AY  21352.07404110  .00004217  00000+0  23316-3 0  9996
2 48925  97.5316 118.7087 0014817   7.1496 352.9945 15.14338580 26510
KSF1-B                  
1 48926U 21059AZ  21352.21127593  .00002296  00000+0  12838-3 0  9992
2 48926  97.5328 118.9229 0016491   6.0019 113.2996 15.14393049 26530
LEMUR-2-AC-CUBED        
1 48927U 21059BA  21352.05072576  .00004005  00000+0  22059-3 0  9991
2 48927  97.5290 118.6892 0017270   9.6926 350.4636 15.14475424 26516
PAINANI-2               
1 48928U 21059BB  21351.86354440  .00001946  00000+0  11007-3 0  9995
2 48928  97.5356 118.6059 0015678  11.0978 349.0597 15.14162355 26481
LEMUR-2-MERIMA          
1 48929U 21059BC  21351.84085302  .00004880  00000+0  26663-3 0  9996
2 48929  97.5267 118.4648 0017269  11.6762 348.4866 15.14648488 26488
KSF1-A                  
1 48930U 21059BD  21352.24849361  .00002119  00000+0  11821-3 0  9999
2 48930  97.5253 118.8429 0015952   8.8115  54.3380 15.14569117 26545
HAWK-3B                 
1 48931U 21059BE  21351.84883380  .00001113  00000+0  64450-4 0  9994
2 48931  97.5185 118.3029 0016553  19.2476 340.9378 15.14177747 26483
SPACEBEE-92             
1 48932U 21059BF  21351.88384301  .00007816  00000+0  40895-3 0  9990
2 48932  97.5272 118.7379 0017001  14.8335 345.3392 15.15994567 26503
SPACEBEE-89             
1 48933U 21059BG  21352.07683767  .00007954  00000+0  41478-3 0  9992
2 48933  97.5267 118.9341 0016952  14.0321 346.1379 15.16108901 26537
SPACEBEE-96             
1 48934U 21059BH  21351.88919797  .00007568  00000+0  39727-3 0  9991
2 48934  97.5272 118.7318 0017030  14.7549 345.4177 15.15890640 26505
SPACEBEE-88             
1 48935U 21059BJ  21351.87920595  .00008146  00000+0  42458-3 0  9997
2 48935  97.5265 118.7348 0016963  14.6310 345.5410 15.16115296 26509
SPACEBEE-97             
1 48936U 21059BK  21351.82594988  .00007165  00000+0  37709-3 0  9999
2 48936  97.5274 118.6684 0016959  15.2887 344.8854 15.15820719 26497
SPACEBEE-94             
1 48937U 21059BL  21352.08286256  .00007839  00000+0  41053-3 0  9990
2 48937  97.5269 118.9301 0017076  14.2572 345.9139 15.15961753 26539
SHANNON                 
1 48938U 21059BM  21351.83392885  .00001649  00000+0  93477-4 0  9990
2 48938  97.5328 118.5875 0017298  16.3030 343.8754 15.14285587 26483
SPACEBEE-93             
1 48939U 21059BN  21351.88215298  .00008011  00000+0  41853-3 0  9998
2 48939  97.5268 118.7355 0017036  14.6591 345.5132 15.16036601 26500
SPACEBEE-91             
1 48940U 21059BP  21351.88043383  .00008043  00000+0  41978-3 0  9997
2 48940  97.5269 118.7374 0016963  14.6611 345.5110 15.16075478 26506
SHERPA-LTE1             
1 48941U 21059BQ  21351.84186295  .00001166  00000+0  65723-4 0  9998
2 48941  97.5325 118.5698 0016184  19.7476 340.4379 15.15069594 26486
KSF1-C                  
1 48942U 21059BR  21352.10930318  .00002464  00000+0  13590-3 0  9998
2 48942  97.5356 118.9915 0017238  15.0964 157.0168 15.14802752 26522
QMR-KWT                 
1 48943U 21059BS  21351.84951545  .00002228  00000+0  12701-3 0  9995
2 48943  97.5311 118.3707 0009212  17.9970 342.1586 15.13786649 26478
AYAN-21                 
1 48944U 21059BT  21351.88028178  .00002618  00000+0  14478-3 0  9993
2 48944  97.5328 118.6951 0015872   6.9170 353.2278 15.14665554 26495
SPACEBEE-95             
1 48945U 21059BU  21351.88549868  .00007852  00000+0  41101-3 0  9996
2 48945  97.5273 118.7377 0016922  14.7044 345.4677 15.15980872 26504
SPACEBEE-99             
1 48946U 21059BV  21351.88985140  .00007414  00000+0  38944-3 0  9999
2 48946  97.5273 118.7321 0017039  14.8315 345.3414 15.15874174 26501
SPACEBEE-90             
1 48947U 21059BW  21351.87933428  .00008006  00000+0  41763-3 0  9992
2 48947  97.5268 118.7374 0016973  14.7757 345.3968 15.16092856 26503
HAWK-3C                 
1 48948U 21059BX  21352.11291864  .00001147  00000+0  66308-4 0  9994
2 48948  97.5435 119.0267 0017636  20.0145 340.1774 15.14179261 26527
SPACEBEE-98             
1 48949U 21059BY  21351.82574461  .00007277  00000+0  38244-3 0  9996
2 48949  97.5277 118.6685 0016971  14.7586 345.4138 15.15861519 26494
KSF1-D                  
1 48950U 21059BZ  21352.08295337  .00002504  00000+0  13780-3 0  9995
2 48950  97.5273 118.8103 0016606  16.8370  69.0098 15.14867684 26524
DEMO8 (TENZING)         
1 48951U 21059CA  21351.85750588  .00000948  00000+0  55706-4 0  9999
2 48951  97.5344 118.5758 0017400  17.0856 343.0957 15.14011957 26480
ASTROCAST-0204          
1 48952U 21059CB  21351.87931555  .00001382  00000+0  78453-4 0  9994
2 48952  97.5340 118.6962 0016725  10.4628 349.6949 15.14515766 26499
ARTHUR-1                
1 48953U 21059CC  21352.13456019  .00001568  00000+0  88257-4 0  9991
2 48953  97.5293 118.9014 0015241  14.7738 340.0492 15.14641305 26520
